[{"OBJECT_NAME":"TEIKYOSAT-4 (OORURI)","OBJECT_ID":"2021-102B","EPOCH":"2026-03-09T16:12:29.535840","MEAN_MOTION":15.09119208,"ECCENTRICITY":0.00103447,"INCLINATION":97.3797,"RA_OF_ASC_NODE":101.9931,"ARG_OF_PERICENTER":276.5421,"MEAN_ANOMALY":83.463,"EPHEMERIS_TYPE":0,"CLASSIFICATION_TYPE":"U","NORAD_CAT_ID":49396,"ELEMENT_SET_NO":999,"REV_AT_EPOCH":23771,"BSTAR":0.00015739844,"MEAN_MOTION_DOT":2.438e-5,"MEAN_MOTION_DDOT":0},{"OBJECT_NAME":"STARLINK-4754","OBJECT_ID":"2022-114AA","EPOCH":"2026-03-09T21:34:45.832512","MEAN_MOTION":15.08832557,"ECCENTRICITY":0.00014476,"INCLINATION":53.2177,"RA_OF_ASC_NODE":293.1541,"ARG_OF_PERICENTER":84.9325,"MEAN_ANOMALY":275.1832,"EPHEMERIS_TYPE":0,"CLASSIFICATION_TYPE":"U","NORAD_CAT_ID":53842,"ELEMENT_SET_NO":999,"REV_AT_EPOCH":19300,"BSTAR":0.00012653253,"MEAN_MOTION_DOT":1.726e-5,"MEAN_MOTION_DDOT":0}]
